{
  "type": "FeatureCollection",
  "features": [
    {
      "type": "Feature",
      "properties": {
        "norad_id": 66436,
        "name": "STARLINK-35501",
        "group": "last-30-days",
        "lat": 33.050363017463326,
        "lon": -156.4530643799605,
        "alt_km": 436.27198510773815,
        "timestamp": "2025-12-09T05:43:19.508331+00:00",
        "meta_object_name": "STARLINK-35501",
        "meta_object_id": "2025-259Q",
        "meta_epoch": "2025-12-08T20:00:01.999008",
        "meta_mean_motion": 15.43443964,
        "meta_eccentricity": 0.0001569,
        "meta_inclination": 43.0008,
        "meta_ra_of_asc_node": 70.173,
        "meta_arg_of_pericenter": 270.0201,
        "meta_mean_anomaly": 124.6022,
        "meta_ephemeris_type": 0,
        "meta_classification_type": "U",
        "meta_norad_cat_id": 66436,
        "meta_element_set_no": 999,
        "meta_rev_at_epoch": 565,
        "meta_bstar": -0.043703,
        "meta_mean_motion_dot": -0.0180498,
        "meta_mean_motion_ddot": 0,
        "tle_line1": "1 66436U 25259Q   25342.83335647 -.01804980  00000+0 -43703-1 0  9992",
        "tle_line2": "2 66436  43.0008  70.1730 0001569 270.0201 124.6022 15.43443964  5659"
      },
      "geometry": {
        "type": "Point",
        "coordinates": [
          -156.4530643799605,
          33.050363017463326
        ]
      }
    },
    {
      "type": "Feature",
      "properties": {
        "norad_id": 66437,
        "name": "STARLINK-35474",
        "group": "last-30-days",
        "lat": 27.42815026614257,
        "lon": -146.03894861242736,
        "alt_km": 433.7324093913667,
        "timestamp": "2025-12-09T05:43:19.508342+00:00",
        "meta_object_name": "STARLINK-35474",
        "meta_object_id": "2025-259R",
        "meta_epoch": "2025-12-08T20:00:01.999008",
        "meta_mean_motion": 15.44857289,
        "meta_eccentricity": 0.0001568,
        "meta_inclination": 43.0001,
        "meta_ra_of_asc_node": 70.1507,
        "meta_arg_of_pericenter": 283.041,
        "meta_mean_anomaly": 120.2887,
        "meta_ephemeris_type": 0,
        "meta_classification_type": "U",
        "meta_norad_cat_id": 66437,
        "meta_element_set_no": 999,
        "meta_rev_at_epoch": 565,
        "meta_bstar": -0.047761,
        "meta_mean_motion_dot": -0.02041393,
        "meta_mean_motion_ddot": 0,
        "tle_line1": "1 66437U 25259R   25342.83335647 -.02041393  00000+0 -47761-1 0  9993",
        "tle_line2": "2 66437  43.0001  70.1507 0001568 283.0410 120.2887 15.44857289  5651"
      },
      "geometry": {
        "type": "Point",
        "coordinates": [
          -146.03894861242736,
          27.42815026614257
        ]
      }
    },
    {
      "type": "Feature",
      "properties": {
        "norad_id": 66438,
        "name": "STARLINK-34681",
        "group": "last-30-days",
        "lat": 12.01411182256066,
        "lon": -125.46067997899343,
        "alt_km": 414.30926720617845,
        "timestamp": "2025-12-09T05:43:19.508355+00:00",
        "meta_object_name": "STARLINK-34681",
        "meta_object_id": "2025-259S",
        "meta_epoch": "2025-12-07T23:39:13.067424",
        "meta_mean_motion": 15.5049474,
        "meta_eccentricity": 0.00027185,
        "meta_inclination": 42.9984,
        "meta_ra_of_asc_node": 75.0723,
        "meta_arg_of_pericenter": 311.9192,
        "meta_mean_anomaly": 48.1436,
        "meta_ephemeris_type": 0,
        "meta_classification_type": "U",
        "meta_norad_cat_id": 66438,
        "meta_element_set_no": 999,
        "meta_rev_at_epoch": 532,
        "meta_bstar": 0.0016901486,
        "meta_mean_motion_dot": 0.00099791,
        "meta_mean_motion_ddot": 0,
        "tle_line1": "1 66438U 25259S   25341.98556791  .00099791  00000+0  16901-2 0  9998",
        "tle_line2": "2 66438  42.9984  75.0723 0002718 311.9192  48.1436 15.50494740  5328"
      },
      "geometry": {
        "type": "Point",
        "coordinates": [
          -125.46067997899343,
          12.01411182256066
        ]
      }
    },
    {
      "type": "Feature",
      "properties": {
        "norad_id": 66439,
        "name": "STARLINK-35327",
        "group": "last-30-days",
        "lat": 38.23610046922473,
        "lon": -169.8700908200258,
        "alt_km": 439.26079909140753,
        "timestamp": "2025-12-09T05:43:19.508366+00:00",
        "meta_object_name": "STARLINK-35327",
        "meta_object_id": "2025-259T",
        "meta_epoch": "2025-12-08T20:00:01.999008",
        "meta_mean_motion": 15.42127929,
        "meta_eccentricity": 0.0001108,
        "meta_inclination": 43.0003,
        "meta_ra_of_asc_node": 70.1984,
        "meta_arg_of_pericenter": 280.3335,
        "meta_mean_anomaly": 104.1511,
        "meta_ephemeris_type": 0,
        "meta_classification_type": "U",
        "meta_norad_cat_id": 66439,
        "meta_element_set_no": 999,
        "meta_rev_at_epoch": 565,
        "meta_bstar": -0.046143,
        "meta_mean_motion_dot": -0.01820532,
        "meta_mean_motion_ddot": 0,
        "tle_line1": "1 66439U 25259T   25342.83335647 -.01820532  00000+0 -46143-1 0  9997",
        "tle_line2": "2 66439  43.0003  70.1984 0001108 280.3335 104.1511 15.42127929  5654"
      },
      "geometry": {
        "type": "Point",
        "coordinates": [
          -169.8700908200258,
          38.23610046922473
        ]
      }
    },
    {
      "type": "Feature",
      "properties": {
        "norad_id": 66440,
        "name": "STARLINK-35405",
        "group": "last-30-days",
        "lat": 17.01075822095363,
        "lon": -131.40274815721747,
        "alt_km": 427.254304659984,
        "timestamp": "2025-12-09T05:43:19.508376+00:00",
        "meta_object_name": "STARLINK-35405",
        "meta_object_id": "2025-259U",
        "meta_epoch": "2025-12-08T20:00:01.999008",
        "meta_mean_motion": 15.4754266,
        "meta_eccentricity": 0.0001272,
        "meta_inclination": 43.0005,
        "meta_ra_of_asc_node": 70.1188,
        "meta_arg_of_pericenter": 284.4666,
        "meta_mean_anomaly": 132.0443,
        "meta_ephemeris_type": 0,
        "meta_classification_type": "U",
        "meta_norad_cat_id": 66440,
        "meta_element_set_no": 999,
        "meta_rev_at_epoch": 565,
        "meta_bstar": -0.044429,
        "meta_mean_motion_dot": -0.02080072,
        "meta_mean_motion_ddot": 0,
        "tle_line1": "1 66440U 25259U   25342.83335647 -.02080072  00000+0 -44429-1 0  9992",
        "tle_line2": "2 66440  43.0005  70.1188 0001272 284.4666 132.0443 15.47542660  5650"
      },
      "geometry": {
        "type": "Point",
        "coordinates": [
          -131.40274815721747,
          17.01075822095363
        ]
      }
    },
    {
      "type": "Feature",
      "properties": {
        "norad_id": 66441,
        "name": "STARLINK-35426",
        "group": "last-30-days",
        "lat": 9.487177282871372,
        "lon": -122.59659412876039,
        "alt_km": 415.3770472910601,
        "timestamp": "2025-12-09T05:43:19.508387+00:00",
        "meta_object_name": "STARLINK-35426",
        "meta_object_id": "2025-259V",
        "meta_epoch": "2025-12-08T13:33:01.912608",
        "meta_mean_motion": 15.50516656,
        "meta_eccentricity": 0.0004241,
        "meta_inclination": 43.0012,
        "meta_ra_of_asc_node": 71.6764,
        "meta_arg_of_pericenter": 306.6467,
        "meta_mean_anomaly": 53.4003,
        "meta_ephemeris_type": 0,
        "meta_classification_type": "U",
        "meta_norad_cat_id": 66441,
        "meta_element_set_no": 999,
        "meta_rev_at_epoch": 552,
        "meta_bstar": 0.0027132,
        "meta_mean_motion_dot": 0.00161833,
        "meta_mean_motion_ddot": 0,
        "tle_line1": "1 66441U 25259V   25342.56460547  .00161833  00000+0  27132-2 0  9995",
        "tle_line2": "2 66441  43.0012  71.6764 0004241 306.6467  53.4003 15.50516656  5524"
      },
      "geometry": {
        "type": "Point",
        "coordinates": [
          -122.59659412876039,
          9.487177282871372
        ]
      }
    },
    {
      "type": "Feature",
      "properties": {
        "norad_id": 66442,
        "name": "STARLINK-34724",
        "group": "last-30-days",
        "lat": 9.498934269281849,
        "lon": -122.60814208147984,
        "alt_km": 420.5147617545881,
        "timestamp": "2025-12-09T05:43:19.508397+00:00",
        "meta_object_name": "STARLINK-34724",
        "meta_object_id": "2025-259W",
        "meta_epoch": "2025-12-08T20:00:01.999008",
        "meta_mean_motion": 15.50215235,
        "meta_eccentricity": 0.0001355,
        "meta_inclination": 43.0005,
        "meta_ra_of_asc_node": 70.101,
        "meta_arg_of_pericenter": 287.3859,
        "meta_mean_anomaly": 136.624,
        "meta_ephemeris_type": 0,
        "meta_classification_type": "U",
        "meta_norad_cat_id": 66442,
        "meta_element_set_no": 999,
        "meta_rev_at_epoch": 565,
        "meta_bstar": -0.040717,
        "meta_mean_motion_dot": -0.02094307,
        "meta_mean_motion_ddot": 0,
        "tle_line1": "1 66442U 25259W   25342.83335647 -.02094307  00000+0 -40717-1 0  9996",
        "tle_line2": "2 66442  43.0005  70.1010 0001355 287.3859 136.6240 15.50215235  5658"
      },
      "geometry": {
        "type": "Point",
        "coordinates": [
          -122.60814208147984,
          9.498934269281849
        ]
      }
    }
  ]
}